HST                     
1 20580U 90037B   26160.25429042  .00004810  00000+0  15014-3 0  9993
2 20580  28.4711 134.7882 0001992  63.4353 296.6447 15.30659901787355
POLAR                   
1 23802U 96013A   26160.33474726  .00000117  00000+0  00000+0 0  9992
2 23802  79.8443 227.1442 6462789 209.3515  89.3681  1.29846146144758
SWAS                    
1 25560U 98071A   26160.52816788  .00003591  00000+0  22938-3 0  9997
2 25560  69.8963 247.2693 0008971 266.8049  93.2088 15.09579057496113
CXO                     
1 25867U 99040B   26161.44248451  .00000667  00000+0  00000+0 0  9995
2 25867  56.0540 116.8503 7852548 310.2578   0.2529  0.37805334 17299
XMM-NEWTON              
1 25989U 99066A   26161.36780906  .00000089  00000+0  00000+0 0  9993
2 25989  64.5271 283.0748 4677764  65.0342   0.0416  0.50122831 22976
TERRA                   
1 25994U 99068A   26160.49316786  .00000338  00000+0  77728-4 0  9998
2 25994  97.9459 210.3442 0001016 224.6888 242.2888 14.61096977408484
CLUSTER II-FM7 (SAMBA)  
1 26410U 00041A   26161.44626665  .00004459  00000+0  00000+0 0  9993
2 26410 149.9132  49.6129 9048191 266.6863 359.9829  0.44840364 20284
CLUSTER II-FM8 (TANGO)  
1 26464U 00045B   26159.43359147  .00004389  00000+0  00000+0 0  9992
2 26464 150.1534  50.2668 9049658 267.1780   3.1902  0.44405778 20277
ODIN                    
1 26702U 01007A   26160.08640460  .00135654  00000+0  97686-3 0  9990
2 26702  97.3859 200.5220 0006524 153.1212 207.0391 15.73146623388125
TIMED                   
1 26998U 01055B   26160.51478750  .00001262  00000+0  11820-3 0  9992
2 26998  74.0679 250.4663 0000682 350.5126   9.6046 14.95278200329673
CORIOLIS                
1 27640U 03001A   26160.51648534  .00000094  00000+0  64730-4 0  9990
2 27640  98.7125 167.5184 0013032 232.1709 127.8288 14.19942780213139
SORCE                   
1 27651U 03004A   26160.10335366  .00002505  00000+0  19008-3 0  9992
2 27651  39.9917 307.7981 0017671 349.7405  10.3026 15.03669281270686
MOST                    
1 27843U 03031D   26160.46764009  .00000067  00000+0  50738-4 0  9991
2 27843  98.7045 168.3013 0008685 275.6964  84.3223 14.21320922189610
SCISAT 1                
1 27858U 03036A   26160.45970868  .00000506  00000+0  69318-4 0  9995
2 27858  73.9286 186.6964 0008681 255.8003 104.2209 14.81440103230305
SWIFT                   
1 28485U 04047A   26159.59812323  .00052750  00000+0  45448-3 0  9994
2 28485  20.5526 251.1191 0002508 160.7611 199.2930 15.67465385185519
HINODE (SOLAR-B)        
1 29479U 06041A   26160.48645120  .00000693  00000+0  12751-3 0  9993
2 29479  98.0549 176.7525 0016353 316.1938  43.7969 14.68612510 53741
SHIJIAN-6 02A (SJ-6 02A)
1 29505U 06046A   26160.50552193  .00007329  00000+0  37576-3 0  9993
2 29505  97.6372 201.5150 0003943 142.3532 217.7977 15.16855140 71105
SHIJIAN-6 02B (SJ-6 02B)
1 29506U 06046B   26160.48193553  .00001641  00000+0  13181-3 0  9999
2 29506  97.7164 189.5883 0014828  82.4585 277.8323 15.01358727 69584
FGRST (GLAST)           
1 33053U 08029A   26159.97823236  .00003008  00000+0  10744-3 0  9995
2 33053  25.5825 261.4807 0007740 227.0054 132.9836 15.23907653994587
SDO                     
1 36395U 10005A   26160.45717389 -.00000063  00000+0  00000+0 0  9999
2 36395  34.6348  86.4608 0001571  53.7612 180.1782  1.00270666 59982
CRYOSAT 2               
1 36508U 10013A   26160.50028066  .00000118  00000+0  28684-4 0  9990
2 36508  92.0349 275.4334 0002215  86.6105 273.5356 14.51896801856963
X-SAT                   
1 37389U 11015C   26160.50293463  .00000187  00000+0  97131-4 0  9995
2 37389  98.3509 137.8928 0014453  10.8636 349.2854 14.25204129786584
GCOM-W1 (SHIZUKU)       
1 38337U 12025A   26160.42003381  .00000418  00000+0  10275-3 0  9990
2 38337  98.2020 101.0934 0001856  80.5804  30.4831 14.57117341747900
NUSTAR                  
1 38358U 12031A   26160.58337963  .00003911  00000+0  18887-3 0  9991
2 38358   6.0267  91.1687 0008204 344.6090  90.3186 15.08735195  1307
NEOSSAT                 
1 39089U 13009D   26160.47430589  .00000135  00000+0  61506-4 0  9997
2 39089  98.4176 340.6906 0009783 269.6435  90.3630 14.35823715695635
BRITE-AUSTRIA           
1 39091U 13009F   26160.47676852  .00000162  00000+0  69668-4 0  9992
2 39091  98.3993 340.1036 0008967 262.5738  97.4429 14.36539039695946
IRIS                    
1 39197U 13033A   26160.48797544  .00000976  00000+0  11793-3 0  9997
2 39197  97.9335 359.7891 0024148 347.6601  12.4020 14.85869973699233
HISAKI (SPRINT-A)       
1 39253U 13049A   26160.54268463  .00000126  00000+0  82607-4 0  9997
2 39253  29.7202 258.8784 0136887 314.9019  44.0512 13.55543891630388
CASSIOPE                
1 39265U 13055A   26160.48446877  .00041911 -57621-6  46184-3 0  9992
2 39265  80.9146  76.0689 0295286  88.2680 275.2345 15.24483794666491
STSAT-3                 
1 39422U 13066G   26160.52187000  .00003281  00000+0  24994-3 0  9998
2 39422  97.6212 130.5336 0011004  64.8690 295.3675 15.02711150683051
SWARM B                 
1 39451U 13067A   26160.53956089  .00003103  00000+0  11066-3 0  9992
2 39451  87.7440 344.6411 0003391  89.9573 270.2065 15.28505052682072
